[{"OBJECT_NAME":"GLOBAL-17","OBJECT_ID":"2021-120A","EPOCH":"2026-03-29T04:49:45.778656","MEAN_MOTION":15.48129779,"ECCENTRICITY":0.0010344,"INCLINATION":41.9952,"RA_OF_ASC_NODE":164.4582,"ARG_OF_PERICENTER":47.0304,"MEAN_ANOMALY":313.1405,"EPHEMERIS_TYPE":0,"CLASSIFICATION_TYPE":"U","NORAD_CAT_ID":49949,"ELEMENT_SET_NO":999,"REV_AT_EPOCH":24248,"BSTAR":0.00070939,"MEAN_MOTION_DOT":0.00038154,"MEAN_MOTION_DDOT":0},{"OBJECT_NAME":"GLOBAL-16","OBJECT_ID":"2021-120B","EPOCH":"2026-03-28T22:09:31.956192","MEAN_MOTION":15.46409081,"ECCENTRICITY":0.0008631,"INCLINATION":41.9955,"RA_OF_ASC_NODE":168.4819,"ARG_OF_PERICENTER":33.0762,"MEAN_ANOMALY":327.0619,"EPHEMERIS_TYPE":0,"CLASSIFICATION_TYPE":"U","NORAD_CAT_ID":49950,"ELEMENT_SET_NO":999,"REV_AT_EPOCH":24240,"BSTAR":0.00055428,"MEAN_MOTION_DOT":0.0002795,"MEAN_MOTION_DDOT":0},{"OBJECT_NAME":"XW-3 (CAS-9)","OBJECT_ID":"2021-131B","EPOCH":"2026-03-29T05:17:17.727648","MEAN_MOTION":14.41274655,"ECCENTRICITY":0.0003748,"INCLINATION":98.4945,"RA_OF_ASC_NODE":181.0623,"ARG_OF_PERICENTER":356.1334,"MEAN_ANOMALY":3.9825,"EPHEMERIS_TYPE":0,"CLASSIFICATION_TYPE":"U","NORAD_CAT_ID":50466,"ELEMENT_SET_NO":999,"REV_AT_EPOCH":22359,"BSTAR":0.00016129,"MEAN_MOTION_DOT":4.77e-6,"MEAN_MOTION_DDOT":0},{"OBJECT_NAME":"ION SCV-004","OBJECT_ID":"2022-002K","EPOCH":"2026-03-29T02:52:23.266272","MEAN_MOTION":15.29607995,"ECCENTRICITY":0.0005736,"INCLINATION":97.2926,"RA_OF_ASC_NODE":147.2952,"ARG_OF_PERICENTER":280.3635,"MEAN_ANOMALY":79.6959,"EPHEMERIS_TYPE":0,"CLASSIFICATION_TYPE":"U","NORAD_CAT_ID":50993,"ELEMENT_SET_NO":999,"REV_AT_EPOCH":23305,"BSTAR":0.00024122,"MEAN_MOTION_DOT":6.849e-5,"MEAN_MOTION_DDOT":0},{"OBJECT_NAME":"ETV-A1","OBJECT_ID":"2022-002CE","EPOCH":"2026-03-29T03:32:33.433152","MEAN_MOTION":15.38940458,"ECCENTRICITY":0.0003621,"INCLINATION":97.2956,"RA_OF_ASC_NODE":154.7565,"ARG_OF_PERICENTER":272.0047,"MEAN_ANOMALY":88.0784,"EPHEMERIS_TYPE":0,"CLASSIFICATION_TYPE":"U","NORAD_CAT_ID":51060,"ELEMENT_SET_NO":999,"REV_AT_EPOCH":23352,"BSTAR":0.00038158,"MEAN_MOTION_DOT":0.00014637,"MEAN_MOTION_DDOT":0},{"OBJECT_NAME":"BRO-5","OBJECT_ID":"2022-002CF","EPOCH":"2026-03-29T03:49:33.523392","MEAN_MOTION":15.43973375,"ECCENTRICITY":0.0003591,"INCLINATION":97.306,"RA_OF_ASC_NODE":161.3247,"ARG_OF_PERICENTER":248.6318,"MEAN_ANOMALY":111.4548,"EPHEMERIS_TYPE":0,"CLASSIFICATION_TYPE":"U","NORAD_CAT_ID":51061,"ELEMENT_SET_NO":999,"REV_AT_EPOCH":23389,"BSTAR":0.00039787,"MEAN_MOTION_DOT":0.00018052,"MEAN_MOTION_DDOT":0},{"OBJECT_NAME":"LUDI TANCE 1-01A (L-SAR 01A)","OBJECT_ID":"2022-007A","EPOCH":"2026-03-29T04:20:47.865120","MEAN_MOTION":14.88423126,"ECCENTRICITY":0.0001625,"INCLINATION":97.8109,"RA_OF_ASC_NODE":96.7432,"ARG_OF_PERICENTER":87.8599,"MEAN_ANOMALY":272.2804,"EPHEMERIS_TYPE":0,"CLASSIFICATION_TYPE":"U","NORAD_CAT_ID":51284,"ELEMENT_SET_NO":999,"REV_AT_EPOCH":22657,"BSTAR":9.8056e-5,"MEAN_MOTION_DOT":8.55e-6,"MEAN_MOTION_DDOT":0},{"OBJECT_NAME":"INSPIRESAT 1","OBJECT_ID":"2022-013B","EPOCH":"2026-03-29T01:57:11.451456","MEAN_MOTION":15.8585646,"ECCENTRICITY":0.0001061,"INCLINATION":97.442,"RA_OF_ASC_NODE":137.1505,"ARG_OF_PERICENTER":116.1003,"MEAN_ANOMALY":244.0376,"EPHEMERIS_TYPE":0,"CLASSIFICATION_TYPE":"U","NORAD_CAT_ID":51657,"ELEMENT_SET_NO":999,"REV_AT_EPOCH":22994,"BSTAR":0.001025,"MEAN_MOTION_DOT":0.00255793,"MEAN_MOTION_DDOT":0},{"OBJECT_NAME":"LUDI TANCE 1-01B (L-SAR 01B)","OBJECT_ID":"2022-018A","EPOCH":"2026-03-29T05:09:11.292192","MEAN_MOTION":14.88415593,"ECCENTRICITY":0.0001618,"INCLINATION":97.8118,"RA_OF_ASC_NODE":96.7674,"ARG_OF_PERICENTER":89.3376,"MEAN_ANOMALY":270.8026,"EPHEMERIS_TYPE":0,"CLASSIFICATION_TYPE":"U","NORAD_CAT_ID":51822,"ELEMENT_SET_NO":999,"REV_AT_EPOCH":22181,"BSTAR":0.0001069,"MEAN_MOTION_DOT":9.37e-6,"MEAN_MOTION_DDOT":0},{"OBJECT_NAME":"2022-019D","OBJECT_ID":"2022-019D","EPOCH":"2026-03-29T05:43:56.428320","MEAN_MOTION":15.61143444,"ECCENTRICITY":0.0005308,"INCLINATION":97.3678,"RA_OF_ASC_NODE":177.0118,"ARG_OF_PERICENTER":77.9413,"MEAN_ANOMALY":282.2439,"EPHEMERIS_TYPE":0,"CLASSIFICATION_TYPE":"U","NORAD_CAT_ID":51827,"ELEMENT_SET_NO":999,"REV_AT_EPOCH":22719,"BSTAR":0.0008703,"MEAN_MOTION_DOT":0.00073903,"MEAN_MOTION_DDOT":0},{"OBJECT_NAME":"JILIN-1 GAOFEN 03D14","OBJECT_ID":"2022-019H","EPOCH":"2026-03-29T05:50:47.196384","MEAN_MOTION":15.90254717,"ECCENTRICITY":0.0001505,"INCLINATION":97.3672,"RA_OF_ASC_NODE":182.9761,"ARG_OF_PERICENTER":247.8875,"MEAN_ANOMALY":112.2239,"EPHEMERIS_TYPE":0,"CLASSIFICATION_TYPE":"U","NORAD_CAT_ID":51831,"ELEMENT_SET_NO":999,"REV_AT_EPOCH":22757,"BSTAR":0.0014578,"MEAN_MOTION_DOT":0.00438095,"MEAN_MOTION_DDOT":7.4278e-5},{"OBJECT_NAME":"2022-019J","OBJECT_ID":"2022-019J","EPOCH":"2026-03-29T04:04:07.494816","MEAN_MOTION":15.20079523,"ECCENTRICITY":0.0009815,"INCLINATION":97.3505,"RA_OF_ASC_NODE":153.0393,"ARG_OF_PERICENTER":141.704,"MEAN_ANOMALY":218.4894,"EPHEMERIS_TYPE":0,"CLASSIFICATION_TYPE":"U","NORAD_CAT_ID":51832,"ELEMENT_SET_NO":999,"REV_AT_EPOCH":22564,"BSTAR":0.00014378,"MEAN_MOTION_DOT":3.04e-5,"MEAN_MOTION_DDOT":0},{"OBJECT_NAME":"JILIN-1 GAOFEN 03D16","OBJECT_ID":"2022-019L","EPOCH":"2026-03-29T02:27:42.206112","MEAN_MOTION":16.04892148,"ECCENTRICITY":0.0004602,"INCLINATION":97.3624,"RA_OF_ASC_NODE":184.4457,"ARG_OF_PERICENTER":257.1678,"MEAN_ANOMALY":102.9089,"EPHEMERIS_TYPE":0,"CLASSIFICATION_TYPE":"U","NORAD_CAT_ID":51834,"ELEMENT_SET_NO":999,"REV_AT_EPOCH":22766,"BSTAR":0.0013503,"MEAN_MOTION_DOT":0.00905279,"MEAN_MOTION_DDOT":0.00042969},{"OBJECT_NAME":"JILIN-1 GAOFEN 03D11","OBJECT_ID":"2022-019M","EPOCH":"2026-03-29T05:36:48.144384","MEAN_MOTION":15.85713614,"ECCENTRICITY":0.0001501,"INCLINATION":97.3703,"RA_OF_ASC_NODE":182.8535,"ARG_OF_PERICENTER":200.2444,"MEAN_ANOMALY":159.8767,"EPHEMERIS_TYPE":0,"CLASSIFICATION_TYPE":"U","NORAD_CAT_ID":51835,"ELEMENT_SET_NO":999,"REV_AT_EPOCH":22755,"BSTAR":0.0014607,"MEAN_MOTION_DOT":0.00366682,"MEAN_MOTION_DDOT":0},{"OBJECT_NAME":"JILIN-1 GAOFEN 03D15","OBJECT_ID":"2022-019R","EPOCH":"2026-03-29T05:28:50.380032","MEAN_MOTION":15.74105243,"ECCENTRICITY":0.0002374,"INCLINATION":97.3674,"RA_OF_ASC_NODE":180.5321,"ARG_OF_PERICENTER":141.2611,"MEAN_ANOMALY":218.8824,"EPHEMERIS_TYPE":0,"CLASSIFICATION_TYPE":"U","NORAD_CAT_ID":51839,"ELEMENT_SET_NO":999,"REV_AT_EPOCH":22743,"BSTAR":0.0013047,"MEAN_MOTION_DOT":0.0018981,"MEAN_MOTION_DDOT":0},{"OBJECT_NAME":"JILIN-1 GAOFEN 03D10","OBJECT_ID":"2022-019S","EPOCH":"2026-03-29T05:49:25.120704","MEAN_MOTION":15.85498758,"ECCENTRICITY":0.000385,"INCLINATION":97.3667,"RA_OF_ASC_NODE":182.8423,"ARG_OF_PERICENTER":232.2771,"MEAN_ANOMALY":127.8151,"EPHEMERIS_TYPE":0,"CLASSIFICATION_TYPE":"U","NORAD_CAT_ID":51840,"ELEMENT_SET_NO":999,"REV_AT_EPOCH":22757,"BSTAR":0.0013281,"MEAN_MOTION_DOT":0.00328622,"MEAN_MOTION_DDOT":0}]
