GLOBAL-17               
1 49949U 21120A   26088.20122429  .00038154  00000+0  70939-3 0  9998
2 49949  41.9952 164.4582 0010344  47.0304 313.1405 15.48129779242487
GLOBAL-16               
1 49950U 21120B   26087.92328653  .00027950  00000+0  55428-3 0  9993
2 49950  41.9955 168.4819 0008631  33.0762 327.0619 15.46409081242406
XW-3 (CAS-9)            
1 50466U 21131B   26088.22034407  .00000477  00000+0  16129-3 0  9994
2 50466  98.4945 181.0623 0003748 356.1334   3.9825 14.41274655223597
ION SCV-004             
1 50993U 22002K   26088.11971373  .00006849  00000+0  24122-3 0  9998
2 50993  97.2926 147.2952 0005736 280.3635  79.6959 15.29607995233052
ETV-A1                  
1 51060U 22002CE  26088.14760918  .00014637  00000+0  38158-3 0  9996
2 51060  97.2956 154.7565 0003621 272.0047  88.0784 15.38940458233526
BRO-5                   
1 51061U 22002CF  26088.15941578  .00018052  00000+0  39787-3 0  9995
2 51061  97.3060 161.3247 0003591 248.6318 111.4548 15.43973375233890
LUDI TANCE 1-01A (L-SA*)
1 51284U 22007A   26088.18110955  .00000855  00000+0  98056-4 0  9994
2 51284  97.8109  96.7432 0001625  87.8599 272.2804 14.88423126226573
INSPIRESAT 1            
1 51657U 22013B   26088.08138254  .00255793  00000+0  10250-2 0  9997
2 51657  97.4420 137.1505 0001061 116.1003 244.0376 15.85856460229944
LUDI TANCE 1-01B (L-SA*)
1 51822U 22018A   26088.21471403  .00000937  00000+0  10690-3 0  9994
2 51822  97.8118  96.7674 0001618  89.3376 270.8026 14.88415593221812
2022-019D               
1 51827U 22019D   26088.23884755  .00073903  00000+0  87030-3 0  9995
2 51827  97.3678 177.0118 0005308  77.9413 282.2439 15.61143444227191
JILIN-1 GAOFEN 03D14    
1 51831U 22019H   26088.24360181  .00438095  74278-4  14578-2 0  9999
2 51831  97.3672 182.9761 0001505 247.8875 112.2239 15.90254717227574
2022-019J               
1 51832U 22019J   26088.16953119  .00003040  00000+0  14378-3 0  9994
2 51832  97.3505 153.0393 0009815 141.7040 218.4894 15.20079523225643
JILIN-1 GAOFEN 03D16    
1 51834U 22019L   26088.10257183  .00905279  42969-3  13503-2 0  9995
2 51834  97.3624 184.4457 0004602 257.1678 102.9089 16.04892148227660
JILIN-1 GAOFEN 03D11    
1 51835U 22019M   26088.23389056  .00366682  00000+0  14607-2 0  9996
2 51835  97.3703 182.8535 0001501 200.2444 159.8767 15.85713614227553
JILIN-1 GAOFEN 03D15    
1 51839U 22019R   26088.22836088  .00189810  00000+0  13047-2 0  9994
2 51839  97.3674 180.5321 0002374 141.2611 218.8824 15.74105243227439
JILIN-1 GAOFEN 03D10    
1 51840U 22019S   26088.24265186  .00328622  00000+0  13281-2 0  9999
2 51840  97.3667 182.8423 0003850 232.2771 127.8151 15.85498758227574
